{
"type": "FeatureCollection",
"crs": { "type": "name", "properties": { "name": "urn:ogc:def:crs:OGC:1.3:CRS84" } },
"features": [
{ "type": "Feature", "properties": { "site_name": "Lower West Neighborhood Health Clinic", "hours_of_operation": "Mon - Fri: 8:00 am – 4:00 pm.", "address": "1713 S. Ashland Ave.", "city": "Chicago", "state": "IL", "zip": "60608", "phone": "312-746-5157", "website": { "url": "http://www.cityofchicago.org/city/en/depts/cdph/supp_info/clinical_health/community_healthclinics.html" }, "services": "Adults, Children, Family Case Management, Immigration Physicals, Medication Assistance, Pregnancy Testing, Pregnant Women, Women seeking Birth Control", "location": { "latitude": "41.85859418201153", "longitude": "-87.6660674613758", "human_address": "{\"address\": \"1713 S. Ashland Ave.\", \"city\": \"Chicago\", \"state\": \"IL\", \"zip\": \"60608\"}" }, ":@computed_region_rpca_8um6": "43", ":@computed_region_vrxf_vc4k": "33", ":@computed_region_6mkv_f3dw": "14920", ":@computed_region_bdys_3d7i": "270", ":@computed_region_43wa_7qmu": "26", ":@computed_region_awaf_s7ux": "8", "category": "Primary Care Center – Public (FQHC / CHC)", "source": "Chicago Data Portal" }, "geometry": { "type": "Point", "coordinates": [ -87.666067461375803, 41.858594182011529 ] } },
{ "type": "Feature", "properties": { "site_name": "South Chicago Women & Children Health Center", "hours_of_operation": "Mon - Fri: 8:00 am – 4:00 pm.", "address": "2938 E. 89th St.", "city": "Chicago", "state": "IL", "zip": "60617", "phone": "312-747-5285", "website": { "url": "http://www.cityofchicago.org/city/en/depts/cdph/supp_info/clinical_health/community_healthclinics.html" }, "services": "Children, Family Case Management, Pregnancy Testing, Pregnant Women, Women seeking Birth Control", "location": { "latitude": "41.733735602176786", "longitude": "-87.55257057910126", "human_address": "{\"address\": \"2938 E. 89th St.\", \"city\": \"Chicago\", \"state\": \"IL\", \"zip\": \"60617\"}" }, ":@computed_region_rpca_8um6": "25", ":@computed_region_vrxf_vc4k": "42", ":@computed_region_6mkv_f3dw": "21202", ":@computed_region_bdys_3d7i": "509", ":@computed_region_43wa_7qmu": "47", ":@computed_region_awaf_s7ux": "47", "category": "Primary Care Center – Public (FQHC / CHC)", "source": "Chicago Data Portal" }, "geometry": { "type": "Point", "coordinates": [ -87.552570579101257, 41.733735602176786 ] } },
{ "type": "Feature", "properties": { "site_name": "South Lawndale Women & Children Health Center", "hours_of_operation": "Mon - Fri: 8:00 am – 4:00 pm.", "address": "3059 W. 26th St.", "city": "Chicago", "state": "IL", "zip": "60623", "phone": "312-747-0066", "website": { "url": "http://www.cityofchicago.org/city/en/depts/cdph/supp_info/clinical_health/community_healthclinics.html" }, "services": "Children, Family Case Management, Pregnancy Testing, Pregnant Women, Women seeking Birth Control", "location": { "latitude": "41.84364547069314", "longitude": "-87.7019192211315", "human_address": "{\"address\": \"3059 W. 26th St.\", \"city\": \"Chicago\", \"state\": \"IL\", \"zip\": \"60623\"}" }, ":@computed_region_rpca_8um6": "57", ":@computed_region_vrxf_vc4k": "32", ":@computed_region_6mkv_f3dw": "21569", ":@computed_region_bdys_3d7i": "124", ":@computed_region_43wa_7qmu": "1", ":@computed_region_awaf_s7ux": "29", "category": "Primary Care Center – Public (FQHC / CHC)", "source": "Chicago Data Portal" }, "geometry": { "type": "Point", "coordinates": [ -87.701919221131504, 41.84364547069314 ] } },
{ "type": "Feature", "properties": { "site_name": "Roseland Neighborhood Health Clinic", "hours_of_operation": "Mon, Wed, Fri: 8:00 am – 4:00 pm; Tue, and Thurs: 9:00 am - 5:00pm\n", "address": "200 E. 115th St.", "city": "Chicago", "state": "IL", "zip": "60628", "phone": "312-747-9500", "website": { "url": "http://www.cityofchicago.org/city/en/depts/cdph/supp_info/clinical_health/community_healthclinics.html" }, "services": "Adults, Family Case Management, Medication Assistance", "location": { "latitude": "41.68540464454324", "longitude": "-87.61804579760663", "human_address": "{\"address\": \"200 E. 115th St.\", \"city\": \"Chicago\", \"state\": \"IL\", \"zip\": \"60628\"}" }, ":@computed_region_rpca_8um6": "19", ":@computed_region_vrxf_vc4k": "45", ":@computed_region_6mkv_f3dw": "21861", ":@computed_region_bdys_3d7i": "253", ":@computed_region_43wa_7qmu": "43", ":@computed_region_awaf_s7ux": "30", "category": "Primary Care Center – Public (FQHC / CHC)", "source": "Chicago Data Portal" }, "geometry": { "type": "Point", "coordinates": [ -87.618045797606626, 41.68540464454324 ] } },
{ "type": "Feature", "properties": { "site_name": "Englewood Neighborhood Health Clinic", "hours_of_operation": "Mon, Wed, Fri: 8:00 am – 4:00 pm; Tue, and Thurs: 10:00 am - 6:00pm", "address": "641 W. 63rd St.", "city": "Chicago", "state": "IL", "zip": "60621", "phone": "312-747-7831", "website": { "url": "http://www.cityofchicago.org/city/en/depts/cdph/supp_info/clinical_health/community_healthclinics.html" }, "services": "Adults, Children, Family Case Management, Medication Assistance, Pregnancy Testing, Pregnant Women, Women seeking Birth Control", "location": { "latitude": "41.779780316087795", "longitude": "-87.64157740963851", "human_address": "{\"address\": \"641 W. 63rd St.\", \"city\": \"Chicago\", \"state\": \"IL\", \"zip\": \"60621\"}" }, ":@computed_region_rpca_8um6": "11", ":@computed_region_vrxf_vc4k": "66", ":@computed_region_6mkv_f3dw": "21559", ":@computed_region_bdys_3d7i": "435", ":@computed_region_43wa_7qmu": "4", ":@computed_region_awaf_s7ux": "53", "category": "Primary Care Center – Public (FQHC / CHC)", "source": "Chicago Data Portal" }, "geometry": { "type": "Point", "coordinates": [ -87.641577409638515, 41.779780316087795 ] } },
{ "type": "Feature", "properties": { "site_name": "Uptown Neighborhood Health Center", "hours_of_operation": "Mon, Wed, Fri: 8:00 am – 4:00 pm; Tue, and Thurs: 10:00 am - 6:00pm", "address": "845 W. Wilson Ave.", "city": "Chicago", "state": "IL", "zip": "60640", "phone": "312-744-1938", "website": { "url": "http://www.cityofchicago.org/city/en/depts/cdph/supp_info/clinical_health/community_healthclinics.html" }, "services": "Adult, Children, Family Case Management, Immigration Physicals, Medication Assistance, Pregnancy Testing, Pregnant Women, Refugee, Women seeking Birth Control", "location": { "latitude": "41.96548927279645", "longitude": "-87.65107031162161", "human_address": "{\"address\": \"845 W. Wilson Ave.\", \"city\": \"Chicago\", \"state\": \"IL\", \"zip\": \"60640\"}" }, ":@computed_region_rpca_8um6": "15", ":@computed_region_vrxf_vc4k": "31", ":@computed_region_6mkv_f3dw": "22616", ":@computed_region_bdys_3d7i": "19", ":@computed_region_43wa_7qmu": "39", ":@computed_region_awaf_s7ux": "37", "category": "Primary Care Center – Public (FQHC / CHC)", "source": "Chicago Data Portal" }, "geometry": { "type": "Point", "coordinates": [ -87.651070311621609, 41.965489272796447 ] } },
{ "type": "Feature", "properties": { "site_name": "West Town Neighborhood Health Center", "hours_of_operation": "Mon, Wed, Fri: 8:00 am – 4:00 pm; Tue, and Thurs: 10:00 am - 6:00pm\n", "address": "2418 W. Division St.", "city": "Chicago", "state": "IL", "zip": "60622", "phone": "312-744-0943", "website": { "url": "http://www.cityofchicago.org/city/en/depts/cdph/supp_info/clinical_health/community_healthclinics.html" }, "services": "Adult, Children, Family Case Management, Immigration Physicals, Medication Assistance, Pregnancy Testing, Pregnant Women, Women seeking Birth Control", "location": { "latitude": "41.90336045343866", "longitude": "-87.68771892628885", "human_address": "{\"address\": \"2418 W. Division St.\", \"city\": \"Chicago\", \"state\": \"IL\", \"zip\": \"60622\"}" }, ":@computed_region_rpca_8um6": "4", ":@computed_region_vrxf_vc4k": "25", ":@computed_region_6mkv_f3dw": "21560", ":@computed_region_bdys_3d7i": "302", ":@computed_region_43wa_7qmu": "49", ":@computed_region_awaf_s7ux": "10", "category": "Primary Care Center – Public (FQHC / CHC)", "source": "Chicago Data Portal" }, "geometry": { "type": "Point", "coordinates": [ -87.687718926288852, 41.903360453438658 ] } }
]
}
